[{"OBJECT_NAME":"AFR-1","OBJECT_ID":"2023-084AJ","EPOCH":"2026-03-09T23:02:07.499328","MEAN_MOTION":15.27543824,"ECCENTRICITY":0.00099838,"INCLINATION":97.6099,"RA_OF_ASC_NODE":203.4313,"ARG_OF_PERICENTER":334.9676,"MEAN_ANOMALY":25.1077,"EPHEMERIS_TYPE":0,"CLASSIFICATION_TYPE":"U","NORAD_CAT_ID":56964,"ELEMENT_SET_NO":999,"REV_AT_EPOCH":15207,"BSTAR":0.00024843733,"MEAN_MOTION_DOT":6.624e-5,"MEAN_MOTION_DDOT":0},{"OBJECT_NAME":"STARLINK-32746","OBJECT_ID":"2025-014L","EPOCH":"2026-03-09T07:20:09.459456","MEAN_MOTION":15.2759143,"ECCENTRICITY":0.00024876,"INCLINATION":42.9997,"RA_OF_ASC_NODE":156.1243,"ARG_OF_PERICENTER":288.6677,"MEAN_ANOMALY":71.3904,"EPHEMERIS_TYPE":0,"CLASSIFICATION_TYPE":"U","NORAD_CAT_ID":62745,"ELEMENT_SET_NO":999,"REV_AT_EPOCH":6320,"BSTAR":0.0013102348,"MEAN_MOTION_DOT":0.00035983,"MEAN_MOTION_DDOT":0}]
